[{"OBJECT_NAME":"TIANHUI 6A","OBJECT_ID":"2023-030A","EPOCH":"2026-03-09T23:27:00.729792","MEAN_MOTION":14.01332353,"ECCENTRICITY":0.00012385,"INCLINATION":99.0142,"RA_OF_ASC_NODE":78.4448,"ARG_OF_PERICENTER":173.8097,"MEAN_ANOMALY":186.3084,"EPHEMERIS_TYPE":0,"CLASSIFICATION_TYPE":"U","NORAD_CAT_ID":55836,"ELEMENT_SET_NO":999,"REV_AT_EPOCH":15350,"BSTAR":-9.2358714e-5,"MEAN_MOTION_DOT":-1.83e-6,"MEAN_MOTION_DDOT":0},{"OBJECT_NAME":"TIANQI-20","OBJECT_ID":"2025-105D","EPOCH":"2026-03-09T21:45:43.775424","MEAN_MOTION":13.99100887,"ECCENTRICITY":0.00114132,"INCLINATION":44.9846,"RA_OF_ASC_NODE":103.7214,"ARG_OF_PERICENTER":272.0417,"MEAN_ANOMALY":87.9108,"EPHEMERIS_TYPE":0,"CLASSIFICATION_TYPE":"U","NORAD_CAT_ID":64061,"ELEMENT_SET_NO":999,"REV_AT_EPOCH":4130,"BSTAR":0.00015588372,"MEAN_MOTION_DOT":9.9e-7,"MEAN_MOTION_DDOT":0}]
